{
  "type": "FeatureCollection",
  "features": [
    {
      "type": "Feature",
      "properties": {
        "norad_id": 67026,
        "name": "STARLINK-36176",
        "group": "last-30-days",
        "lat": -67.85553554771789,
        "lon": -119.08300330191827,
        "alt_km": 287.758469101399,
        "timestamp": "2025-12-19T08:58:48.085814+00:00",
        "meta_object_name": "STARLINK-36176",
        "meta_object_id": "2025-293Z",
        "meta_epoch": "2025-12-18T22:47:22.029792",
        "meta_mean_motion": 15.96621684,
        "meta_eccentricity": 0.00052934,
        "meta_inclination": 69.993,
        "meta_ra_of_asc_node": 305.7135,
        "meta_arg_of_pericenter": 268.5604,
        "meta_mean_anomaly": 91.4999,
        "meta_ephemeris_type": 0,
        "meta_classification_type": "U",
        "meta_norad_cat_id": 67026,
        "meta_element_set_no": 999,
        "meta_rev_at_epoch": 260,
        "meta_bstar": -0.00074223207,
        "meta_mean_motion_dot": -0.00317001,
        "meta_mean_motion_ddot": 3.877554e-05,
        "tle_line1": "1 67026U 25293Z   25352.94956053 -.00317001  38776-4 -74223-3 0  9990",
        "tle_line2": "2 67026  69.9930 305.7135 0005293 268.5604  91.4999 15.96621684  2600"
      },
      "geometry": {
        "type": "Point",
        "coordinates": [
          -119.08300330191827,
          -67.85553554771789
        ]
      }
    },
    {
      "type": "Feature",
      "properties": {
        "norad_id": 67027,
        "name": "STARLINK-36171",
        "group": "last-30-days",
        "lat": -68.79854536799068,
        "lon": -125.46943881072586,
        "alt_km": 291.13915710305446,
        "timestamp": "2025-12-19T08:58:48.085825+00:00",
        "meta_object_name": "STARLINK-36171",
        "meta_object_id": "2025-293AA",
        "meta_epoch": "2025-12-17T20:00:01.999872",
        "meta_mean_motion": 15.98936546,
        "meta_eccentricity": 0.00040721,
        "meta_inclination": 69.9925,
        "meta_ra_of_asc_node": 308.9863,
        "meta_arg_of_pericenter": 268.6099,
        "meta_mean_anomaly": 151.7398,
        "meta_ephemeris_type": 0,
        "meta_classification_type": "U",
        "meta_norad_cat_id": 67027,
        "meta_element_set_no": 999,
        "meta_rev_at_epoch": 238,
        "meta_bstar": -0.0024887441,
        "meta_mean_motion_dot": -0.01197601,
        "meta_mean_motion_ddot": 0.00045322393,
        "tle_line1": "1 67027U 25293AA  25351.83335648 -.01197601  45322-3 -24887-2 0  9996",
        "tle_line2": "2 67027  69.9925 308.9863 0004072 268.6099 151.7398 15.98936546  2387"
      },
      "geometry": {
        "type": "Point",
        "coordinates": [
          -125.46943881072586,
          -68.79854536799068
        ]
      }
    },
    {
      "type": "Feature",
      "properties": {
        "norad_id": 67028,
        "name": "STARLINK-36132",
        "group": "last-30-days",
        "lat": -65.59433252766657,
        "lon": -108.95530062790219,
        "alt_km": 287.3521098875817,
        "timestamp": "2025-12-19T08:58:48.085835+00:00",
        "meta_object_name": "STARLINK-36132",
        "meta_object_id": "2025-293AB",
        "meta_epoch": "2025-12-18T22:46:15.532032",
        "meta_mean_motion": 15.96776399,
        "meta_eccentricity": 0.00054976,
        "meta_inclination": 69.9933,
        "meta_ra_of_asc_node": 305.7103,
        "meta_arg_of_pericenter": 275.0432,
        "meta_mean_anomaly": 85.0149,
        "meta_ephemeris_type": 0,
        "meta_classification_type": "U",
        "meta_norad_cat_id": 67028,
        "meta_element_set_no": 999,
        "meta_rev_at_epoch": 260,
        "meta_bstar": -0.00092886294,
        "meta_mean_motion_dot": -0.00399682,
        "meta_mean_motion_ddot": 5.8689833e-05,
        "tle_line1": "1 67028U 25293AB  25352.94879088 -.00399682  58690-4 -92886-3 0  9991",
        "tle_line2": "2 67028  69.9933 305.7103 0005497 275.0432  85.0149 15.96776399  2608"
      },
      "geometry": {
        "type": "Point",
        "coordinates": [
          -108.95530062790219,
          -65.59433252766657
        ]
      }
    },
    {
      "type": "Feature",
      "properties": {
        "norad_id": 67029,
        "name": "STARLINK-36190",
        "group": "last-30-days",
        "lat": -67.20701659487072,
        "lon": -115.65281191035923,
        "alt_km": 290.7932143600274,
        "timestamp": "2025-12-19T08:58:48.085847+00:00",
        "meta_object_name": "STARLINK-36190",
        "meta_object_id": "2025-293AC",
        "meta_epoch": "2025-12-17T20:00:01.999872",
        "meta_mean_motion": 15.99071595,
        "meta_eccentricity": 0.00041451,
        "meta_inclination": 69.9929,
        "meta_ra_of_asc_node": 308.9822,
        "meta_arg_of_pericenter": 267.261,
        "meta_mean_anomaly": 156.3872,
        "meta_ephemeris_type": 0,
        "meta_classification_type": "U",
        "meta_norad_cat_id": 67029,
        "meta_element_set_no": 999,
        "meta_rev_at_epoch": 238,
        "meta_bstar": -0.002480808,
        "meta_mean_motion_dot": -0.01202844,
        "meta_mean_motion_ddot": 0.00045756265,
        "tle_line1": "1 67029U 25293AC  25351.83335648 -.01202844  45756-3 -24808-2 0  9998",
        "tle_line2": "2 67029  69.9929 308.9822 0004145 267.2610 156.3872 15.99071595  2386"
      },
      "geometry": {
        "type": "Point",
        "coordinates": [
          -115.65281191035923,
          -67.20701659487072
        ]
      }
    },
    {
      "type": "Feature",
      "properties": {
        "norad_id": 67030,
        "name": "STARLINK-36138",
        "group": "last-30-days",
        "lat": -39.52022182841487,
        "lon": 24.00806864180281,
        "alt_km": 296.5988140621821,
        "timestamp": "2025-12-19T08:58:48.085858+00:00",
        "meta_object_name": "STARLINK-36138",
        "meta_object_id": "2025-294A",
        "meta_epoch": "2025-12-18T18:23:45.591360",
        "meta_mean_motion": 15.92867089,
        "meta_eccentricity": 0.00032063,
        "meta_inclination": 42.9989,
        "meta_ra_of_asc_node": 145.5032,
        "meta_arg_of_pericenter": 313.1012,
        "meta_mean_anomaly": 46.9595,
        "meta_ephemeris_type": 0,
        "meta_classification_type": "U",
        "meta_norad_cat_id": 67030,
        "meta_element_set_no": 999,
        "meta_rev_at_epoch": 230,
        "meta_bstar": 5.9434302e-05,
        "meta_mean_motion_dot": 0.000188,
        "meta_mean_motion_ddot": 8.530205e-06,
        "tle_line1": "1 67030U 25294A   25352.76649990  .00018800  85302-5  59434-4 0  9994",
        "tle_line2": "2 67030  42.9989 145.5032 0003206 313.1012  46.9595 15.92867089  2309"
      },
      "geometry": {
        "type": "Point",
        "coordinates": [
          24.00806864180281,
          -39.52022182841487
        ]
      }
    },
    {
      "type": "Feature",
      "properties": {
        "norad_id": 67031,
        "name": "STARLINK-36150",
        "group": "last-30-days",
        "lat": -39.951105670328204,
        "lon": 25.736502331558928,
        "alt_km": 294.504114918137,
        "timestamp": "2025-12-19T08:58:48.085868+00:00",
        "meta_object_name": "STARLINK-36150",
        "meta_object_id": "2025-294B",
        "meta_epoch": "2025-12-18T21:24:05.641344",
        "meta_mean_motion": 15.9285328,
        "meta_eccentricity": 0.00047792,
        "meta_inclination": 42.9993,
        "meta_ra_of_asc_node": 144.7223,
        "meta_arg_of_pericenter": 310.8689,
        "meta_mean_anomaly": 49.1773,
        "meta_ephemeris_type": 0,
        "meta_classification_type": "U",
        "meta_norad_cat_id": 67031,
        "meta_element_set_no": 999,
        "meta_rev_at_epoch": 232,
        "meta_bstar": 0.001615498,
        "meta_mean_motion_dot": 0.00579158,
        "meta_mean_motion_ddot": 0.00014094593,
        "tle_line1": "1 67031U 25294B   25352.89173196  .00579158  14095-3  16155-2 0  9997",
        "tle_line2": "2 67031  42.9993 144.7223 0004779 310.8689  49.1773 15.92853280  2321"
      },
      "geometry": {
        "type": "Point",
        "coordinates": [
          25.736502331558928,
          -39.951105670328204
        ]
      }
    },
    {
      "type": "Feature",
      "properties": {
        "norad_id": 67032,
        "name": "STARLINK-36131",
        "group": "last-30-days",
        "lat": -40.58918123322053,
        "lon": 28.562056518849726,
        "alt_km": 298.22022361757627,
        "timestamp": "2025-12-19T08:58:48.085892+00:00",
        "meta_object_name": "STARLINK-36131",
        "meta_object_id": "2025-294C",
        "meta_epoch": "2025-12-18T21:23:13.516224",
        "meta_mean_motion": 15.925755,
        "meta_eccentricity": 0.00015183,
        "meta_inclination": 42.9978,
        "meta_ra_of_asc_node": 144.7117,
        "meta_arg_of_pericenter": 255.7922,
        "meta_mean_anomaly": 104.2785,
        "meta_ephemeris_type": 0,
        "meta_classification_type": "U",
        "meta_norad_cat_id": 67032,
        "meta_element_set_no": 999,
        "meta_rev_at_epoch": 232,
        "meta_bstar": -0.00099474147,
        "meta_mean_motion_dot": -0.00355807,
        "meta_mean_motion_ddot": 4.9121538e-05,
        "tle_line1": "1 67032U 25294C   25352.89112866 -.00355807  49122-4 -99474-3 0  9996",
        "tle_line2": "2 67032  42.9978 144.7117 0001518 255.7922 104.2785 15.92575500  2324"
      },
      "geometry": {
        "type": "Point",
        "coordinates": [
          28.562056518849726,
          -40.58918123322053
        ]
      }
    }
  ]
}